start=new Date('2022-12-16T00:00:00.000Z').valueOf();
sats=[{"TIME_SYSTEM":"UTC","CLASSIFICATION_TYPE":"U","MEAN_ANOMALY":"332.9016","OBJECT_ID":"2022-017M","ECCENTRICITY":"0.00026740","TLE_LINE1":"1 51779U 22017M   22349.85203247 -.00002693  00000-0 -15112-3 0  9997","LAUNCH_DATE":"2022-02-25","MEAN_MOTION":"15.08836814","RCS_SIZE":"LARGE","PERIAPSIS":"537.905","MEAN_ELEMENT_THEORY":"SGP4","INCLINATION":"53.2171","SITE":"AFWTR","MEAN_MOTION_DDOT":"0.0000000000000","RA_OF_ASC_NODE":"235.6314","PERIOD":"95.438","EPOCH":"2022-12-15T20:26:55.605408","OBJECT_NAME":"STARLINK-3611","BSTAR":"-0.00015112000000","ELEMENT_SET_NO":"999","SEMIMAJOR_AXIS":"6917.890","DECAY_DATE":null,"APOAPSIS":"541.605","FILE":"3702726","MEAN_MOTION_DOT":"-0.00002693","EPHEMERIS_TYPE":"0","ARG_OF_PERICENTER":"27.2116","REV_AT_EPOCH":"4445","GP_ID":"220529088","TLE_LINE2":"2 51779  53.2171 235.6314 0002674  27.2116 332.9016 15.08836814 44457","OBJECT_TYPE":"PAYLOAD","NORAD_CAT_ID":"51779","REF_FRAME":"TEME","COUNTRY_CODE":"US","CENTER_NAME":"EARTH"},{"OBJECT_TYPE":"PAYLOAD","TLE_LINE2":"2 51780  53.2159 235.6756 0002316  37.7922 322.3232 15.08832182 44300","GP_ID":"220529339","COUNTRY_CODE":"US","CENTER_NAME":"EARTH","REF_FRAME":"TEME","NORAD_CAT_ID":"51780","SEMIMAJOR_AXIS":"6917.904","ELEMENT_SET_NO":"999","BSTAR":"0.00022460000000","OBJECT_NAME":"STARLINK-3617","EPOCH":"2022-12-15T20:12:24.310656","REV_AT_EPOCH":"4430","EPHEMERIS_TYPE":"0","ARG_OF_PERICENTER":"37.7922","MEAN_MOTION_DOT":"0.00003287","FILE":"3702726","DECAY_DATE":null,"APOAPSIS":"541.371","INCLINATION":"53.2159","PERIAPSIS":"538.167","MEAN_ELEMENT_THEORY":"SGP4","RA_OF_ASC_NODE":"235.6756","PERIOD":"95.438","MEAN_MOTION_DDOT":"0.0000000000000","SITE":"AFWTR","MEAN_ANOMALY":"322.3232","CLASSIFICATION_TYPE":"U","TIME_SYSTEM":"UTC","MEAN_MOTION":"15.08832182","RCS_SIZE":"LARGE","LAUNCH_DATE":"2022-02-25","TLE_LINE1":"1 51780U 22017N   22349.84194804  .00003287  00000-0  22460-3 0  9998","ECCENTRICITY":"0.00023160","OBJECT_ID":"2022-017N"},{"NORAD_CAT_ID":"51781","REF_FRAME":"TEME","COUNTRY_CODE":"US","CENTER_NAME":"EARTH","TLE_LINE2":"2 51781  53.2160 235.6437 0002822  27.5560 332.5581 15.08829174 44303","GP_ID":"220529589","OBJECT_TYPE":"PAYLOAD","APOAPSIS":"541.731","DECAY_DATE":null,"MEAN_MOTION_DOT":"0.00001315","FILE":"3702726","EPHEMERIS_TYPE":"0","ARG_OF_PERICENTER":"27.5560","REV_AT_EPOCH":"4430","EPOCH":"2022-12-15T20:21:38.608992","OBJECT_NAME":"STARLINK-3580","BSTAR":"0.00010075000000","ELEMENT_SET_NO":"999","SEMIMAJOR_AXIS":"6917.913","MEAN_MOTION_DDOT":"0.0000000000000","SITE":"AFWTR","RA_OF_ASC_NODE":"235.6437","PERIOD":"95.438","MEAN_ELEMENT_THEORY":"SGP4","PERIAPSIS":"537.826","INCLINATION":"53.2160","OBJECT_ID":"2022-017P","TLE_LINE1":"1 51781U 22017P   22349.84836353  .00001315  00000-0  10075-3 0  9990","ECCENTRICITY":"0.00028220","LAUNCH_DATE":"2022-02-25","MEAN_MOTION":"15.08829174","RCS_SIZE":"LARGE","TIME_SYSTEM":"UTC","CLASSIFICATION_TYPE":"U","MEAN_ANOMALY":"332.5581"},{"INCLINATION":"53.2160","PERIAPSIS":"537.837","MEAN_ELEMENT_THEORY":"SGP4","SITE":"AFWTR","MEAN_MOTION_DDOT":"0.0000000000000","PERIOD":"95.438","RA_OF_ASC_NODE":"245.8409","TIME_SYSTEM":"UTC","MEAN_ANOMALY":"332.0727","CLASSIFICATION_TYPE":"U","TLE_LINE1":"1 51782U 22017Q   22349.79959704  .00001169  00000-0  91586-4 0  9995","ECCENTRICITY":"0.00027570","LAUNCH_DATE":"2022-02-25","OBJECT_ID":"2022-017Q","MEAN_MOTION":"15.08840352","RCS_SIZE":"LARGE","OBJECT_TYPE":"PAYLOAD","GP_ID":"220528339","TLE_LINE2":"2 51782  53.2160 245.8409 0002757  28.0414 332.0727 15.08840352 44068","REF_FRAME":"TEME","NORAD_CAT_ID":"51782","CENTER_NAME":"EARTH","COUNTRY_CODE":"US","BSTAR":"0.00009158600000","OBJECT_NAME":"STARLINK-3616","EPOCH":"2022-12-15T19:11:25.184256","SEMIMAJOR_AXIS":"6917.879","ELEMENT_SET_NO":"999","MEAN_MOTION_DOT":"0.00001169","FILE":"3702726","DECAY_DATE":null,"APOAPSIS":"541.652","REV_AT_EPOCH":"4406","EPHEMERIS_TYPE":"0","ARG_OF_PERICENTER":"28.0414"},{"EPOCH":"2022-12-15T20:16:19.968384","OBJECT_NAME":"STARLINK-3628","BSTAR":"0.00006441100000","ELEMENT_SET_NO":"999","SEMIMAJOR_AXIS":"6917.879","DECAY_DATE":null,"APOAPSIS":"541.635","MEAN_MOTION_DOT":"0.00000737","FILE":"3702726","EPHEMERIS_TYPE":"0","ARG_OF_PERICENTER":"28.0507","REV_AT_EPOCH":"4430","GP_ID":"220528589","TLE_LINE2":"2 51783  53.2151 235.6590 0002733  28.0507 332.0632 15.08840471 44308","OBJECT_TYPE":"PAYLOAD","NORAD_CAT_ID":"51783","REF_FRAME":"TEME","CENTER_NAME":"EARTH","COUNTRY_CODE":"US","TIME_SYSTEM":"UTC","CLASSIFICATION_TYPE":"U","MEAN_ANOMALY":"332.0632","OBJECT_ID":"2022-017R","TLE_LINE1":"1 51783U 22017R   22349.84467556  .00000737  00000-0  64411-4 0  9998","ECCENTRICITY":"0.00027330","LAUNCH_DATE":"2022-02-25","RCS_SIZE":"LARGE","MEAN_MOTION":"15.08840471","MEAN_ELEMENT_THEORY":"SGP4","PERIAPSIS":"537.853","INCLINATION":"53.2151","SITE":"AFWTR","MEAN_MOTION_DDOT":"0.0000000000000","PERIOD":"95.438","RA_OF_ASC_NODE":"235.6590"},{"SEMIMAJOR_AXIS":"6917.859","ELEMENT_SET_NO":"999","EPOCH":"2022-12-15T20:41:30.193728","BSTAR":"0.00018043000000","OBJECT_NAME":"STARLINK-3632","REV_AT_EPOCH":"4416","ARG_OF_PERICENTER":"36.1542","EPHEMERIS_TYPE":"0","DECAY_DATE":null,"APOAPSIS":"541.382","MEAN_MOTION_DOT":"0.00002585","FILE":"3702726","TLE_LINE2":"2 51784  53.2160 245.5738 0002396  36.1542 323.9612 15.08846905 44166","GP_ID":"220529840","OBJECT_TYPE":"PAYLOAD","CENTER_NAME":"EARTH","COUNTRY_CODE":"US","NORAD_CAT_ID":"51784","REF_FRAME":"TEME","CLASSIFICATION_TYPE":"U","MEAN_ANOMALY":"323.9612","TIME_SYSTEM":"UTC","MEAN_MOTION":"15.08846905","RCS_SIZE":"LARGE","OBJECT_ID":"2022-017S","TLE_LINE1":"1 51784U 22017S   22349.86215502  .00002585  00000-0  18043-3 0  9995","LAUNCH_DATE":"2022-02-25","ECCENTRICITY":"0.00023960","MEAN_ELEMENT_THEORY":"SGP4","PERIAPSIS":"538.067","INCLINATION":"53.2160","RA_OF_ASC_NODE":"245.5738","PERIOD":"95.437","SITE":"AFWTR","MEAN_MOTION_DDOT":"0.0000000000000"},{"COUNTRY_CODE":"US","CENTER_NAME":"EARTH","NORAD_CAT_ID":"51785","REF_FRAME":"TEME","GP_ID":"220530090","TLE_LINE2":"2 51785  53.2149 235.6829 0002575  32.4644 327.6506 15.08846969 44305","OBJECT_TYPE":"PAYLOAD","EPHEMERIS_TYPE":"0","ARG_OF_PERICENTER":"32.4644","REV_AT_EPOCH":"4430","DECAY_DATE":null,"APOAPSIS":"541.505","MEAN_MOTION_DOT":"0.00002658","FILE":"3702726","ELEMENT_SET_NO":"999","SEMIMAJOR_AXIS":"6917.859","EPOCH":"2022-12-15T20:11:02.143392","OBJECT_NAME":"STARLINK-3646","BSTAR":"0.00018502000000","PERIOD":"95.437","RA_OF_ASC_NODE":"235.6829","MEAN_MOTION_DDOT":"0.0000000000000","SITE":"AFWTR","MEAN_ELEMENT_THEORY":"SGP4","PERIAPSIS":"537.943","INCLINATION":"53.2149","RCS_SIZE":"LARGE","MEAN_MOTION":"15.08846969","OBJECT_ID":"2022-017T","TLE_LINE1":"1 51785U 22017T   22349.84099703  .00002658  00000-0  18502-3 0  9998","ECCENTRICITY":"0.00025750","LAUNCH_DATE":"2022-02-25","CLASSIFICATION_TYPE":"U","MEAN_ANOMALY":"327.6506","TIME_SYSTEM":"UTC"},{"NORAD_CAT_ID":"51786","REF_FRAME":"TEME","CENTER_NAME":"EARTH","COUNTRY_CODE":"US","TLE_LINE2":"2 51786  53.2157 245.6008 0002365  33.3965 326.7176 15.08846595 44160","GP_ID":"220528839","OBJECT_TYPE":"PAYLOAD","APOAPSIS":"541.361","DECAY_DATE":null,"FILE":"3702726","MEAN_MOTION_DOT":"0.00000700","REV_AT_EPOCH":"4416","ARG_OF_PERICENTER":"33.3965","EPHEMERIS_TYPE":"0","EPOCH":"2022-12-15T20:30:54.087552","BSTAR":"0.00006209300000","OBJECT_NAME":"STARLINK-3638","SEMIMAJOR_AXIS":"6917.860","ELEMENT_SET_NO":"999","MEAN_MOTION_DDOT":"0.0000000000000","SITE":"AFWTR","RA_OF_ASC_NODE":"245.6008","PERIOD":"95.437","MEAN_ELEMENT_THEORY":"SGP4","PERIAPSIS":"538.089","INCLINATION":"53.2157","OBJECT_ID":"2022-017U","TLE_LINE1":"1 51786U 22017U   22349.85479268  .00000700  00000-0  62093-4 0  9999","ECCENTRICITY":"0.00023650","LAUNCH_DATE":"2022-02-25","RCS_SIZE":"LARGE","MEAN_MOTION":"15.08846595","TIME_SYSTEM":"UTC","CLASSIFICATION_TYPE":"U","MEAN_ANOMALY":"326.7176"},{"NORAD_CAT_ID":"51787","REF_FRAME":"TEME","CENTER_NAME":"EARTH","COUNTRY_CODE":"US","TLE_LINE2":"2 51787  53.2167 245.8411 0002773  27.3283 332.7855 15.08840268 44152","GP_ID":"220529089","OBJECT_TYPE":"PAYLOAD","DECAY_DATE":null,"APOAPSIS":"541.663","FILE":"3702726","MEAN_MOTION_DOT":"0.00000312","REV_AT_EPOCH":"4415","ARG_OF_PERICENTER":"27.3283","EPHEMERIS_TYPE":"0","EPOCH":"2022-12-15T19:16:43.055040","BSTAR":"0.00003772300000","OBJECT_NAME":"STARLINK-3619","SEMIMAJOR_AXIS":"6917.880","ELEMENT_SET_NO":"999","SITE":"AFWTR","MEAN_MOTION_DDOT":"0.0000000000000","PERIOD":"95.438","RA_OF_ASC_NODE":"245.8411","PERIAPSIS":"537.826","MEAN_ELEMENT_THEORY":"SGP4","INCLINATION":"53.2167","OBJECT_ID":"2022-017V","LAUNCH_DATE":"2022-02-25","TLE_LINE1":"1 51787U 22017V   22349.80327610  .00000312  00000-0  37723-4 0  9999","ECCENTRICITY":"0.00027730","MEAN_MOTION":"15.08840268","RCS_SIZE":"LARGE","TIME_SYSTEM":"UTC","CLASSIFICATION_TYPE":"U","MEAN_ANOMALY":"332.7855"},{"REF_FRAME":"TEME","NORAD_CAT_ID":"51788","COUNTRY_CODE":"US","CENTER_NAME":"EARTH","OBJECT_TYPE":"PAYLOAD","TLE_LINE2":"2 51788  53.2166 246.2606 0002346  28.0592 332.0526 15.08843219 45787","GP_ID":"220529340","MEAN_MOTION_DOT":"0.00000329","FILE":"3702726","DECAY_DATE":null,"APOAPSIS":"541.358","REV_AT_EPOCH":"4578","EPHEMERIS_TYPE":"0","ARG_OF_PERICENTER":"28.0592","BSTAR":"0.00003875600000","OBJECT_NAME":"STARLINK-3641","EPOCH":"2022-12-15T17:04:14.296512","SEMIMAJOR_AXIS":"6917.871","ELEMENT_SET_NO":"999","MEAN_MOTION_DDOT":"0.0000000000000","SITE":"AFWTR","PERIOD":"95.437","RA_OF_ASC_NODE":"246.2606","INCLINATION":"53.2166","MEAN_ELEMENT_THEORY":"SGP4","PERIAPSIS":"538.113","TLE_LINE1":"1 51788U 22017W   22349.71127658  .00000329  00000-0  38756-4 0  9995","ECCENTRICITY":"0.00023460","LAUNCH_DATE":"2022-02-25","OBJECT_ID":"2022-017W","RCS_SIZE":"LARGE","MEAN_MOTION":"15.08843219","TIME_SYSTEM":"UTC","MEAN_ANOMALY":"332.0526","CLASSIFICATION_TYPE":"U"}];
